CCSDS_OMM_VERS = 2.0
CREATION_DATE  = 
ORIGINATOR     = 

OBJECT_NAME    = STARLINK-36461
OBJECT_ID      = 2026-002M
CENTER_NAME    = EARTH
REF_FRAME      = TEME
TIME_SYSTEM    = UTC
MEAN_ELEMENT_THEORY = SGP/SGP4

EPOCH          = 2026-01-15T12:00:01.999296
MEAN_MOTION    = 15.87529979
ECCENTRICITY   = .0001882
INCLINATION    = 42.9978
RA_OF_ASC_NODE = 272.6917
ARG_OF_PERICENTER = 267.4945
MEAN_ANOMALY   = 101.0342

EPHEMERIS_TYPE = 0
CLASSIFICATION_TYPE = U
NORAD_CAT_ID   = 67316
ELEMENT_SET_NO = 999
REV_AT_EPOCH   = 302
BSTAR          = -.57965E-2
MEAN_MOTION_DOT = -.1392288E-1
MEAN_MOTION_DDOT = 0

CCSDS_OMM_VERS = 2.0
CREATION_DATE  = 
ORIGINATOR     = 

OBJECT_NAME    = STARLINK-36450
OBJECT_ID      = 2026-002N
CENTER_NAME    = EARTH
REF_FRAME      = TEME
TIME_SYSTEM    = UTC
MEAN_ELEMENT_THEORY = SGP/SGP4

EPOCH          = 2026-01-15T12:00:01.999296
MEAN_MOTION    = 15.87538805
ECCENTRICITY   = .0001875
INCLINATION    = 42.9978
RA_OF_ASC_NODE = 272.6859
ARG_OF_PERICENTER = 269.8855
MEAN_ANOMALY   = 100.9754

EPHEMERIS_TYPE = 0
CLASSIFICATION_TYPE = U
NORAD_CAT_ID   = 67317
ELEMENT_SET_NO = 999
REV_AT_EPOCH   = 302
BSTAR          = -.57804E-2
MEAN_MOTION_DOT = -.1389454E-1
MEAN_MOTION_DDOT = 0

CCSDS_OMM_VERS = 2.0
CREATION_DATE  = 
ORIGINATOR     = 

OBJECT_NAME    = STARLINK-36498
OBJECT_ID      = 2026-002P
CENTER_NAME    = EARTH
REF_FRAME      = TEME
TIME_SYSTEM    = UTC
MEAN_ELEMENT_THEORY = SGP/SGP4

EPOCH          = 2026-01-15T12:00:01.999296
MEAN_MOTION    = 15.87552531
ECCENTRICITY   = .0001662
INCLINATION    = 42.9976
RA_OF_ASC_NODE = 272.6732
ARG_OF_PERICENTER = 270.4022
MEAN_ANOMALY   = 105.4117

EPHEMERIS_TYPE = 0
CLASSIFICATION_TYPE = U
NORAD_CAT_ID   = 67318
ELEMENT_SET_NO = 999
REV_AT_EPOCH   = 292
BSTAR          = -.585E-2
MEAN_MOTION_DOT = -.1404671E-1
MEAN_MOTION_DDOT = 0

CCSDS_OMM_VERS = 2.0
CREATION_DATE  = 
ORIGINATOR     = 

OBJECT_NAME    = STARLINK-36470
OBJECT_ID      = 2026-002Q
CENTER_NAME    = EARTH
REF_FRAME      = TEME
TIME_SYSTEM    = UTC
MEAN_ELEMENT_THEORY = SGP/SGP4

EPOCH          = 2026-01-15T12:00:01.999296
MEAN_MOTION    = 15.87545844
ECCENTRICITY   = .0001879
INCLINATION    = 42.9979
RA_OF_ASC_NODE = 272.6795
ARG_OF_PERICENTER = 268.7326
MEAN_ANOMALY   = 104.6072

EPHEMERIS_TYPE = 0
CLASSIFICATION_TYPE = U
NORAD_CAT_ID   = 67319
ELEMENT_SET_NO = 999
REV_AT_EPOCH   = 292
BSTAR          = -.5819E-2
MEAN_MOTION_DOT = -.1397966E-1
MEAN_MOTION_DDOT = 0

CCSDS_OMM_VERS = 2.0
CREATION_DATE  = 
ORIGINATOR     = 

OBJECT_NAME    = STARLINK-36500
OBJECT_ID      = 2026-002R
CENTER_NAME    = EARTH
REF_FRAME      = TEME
TIME_SYSTEM    = UTC
MEAN_ELEMENT_THEORY = SGP/SGP4

EPOCH          = 2026-01-15T12:00:01.999296
MEAN_MOTION    = 15.87562917
ECCENTRICITY   = .0001917
INCLINATION    = 42.9979
RA_OF_ASC_NODE = 272.6676
ARG_OF_PERICENTER = 259.9060
MEAN_ANOMALY   = 118.3164

EPHEMERIS_TYPE = 0
CLASSIFICATION_TYPE = U
NORAD_CAT_ID   = 67320
ELEMENT_SET_NO = 999
REV_AT_EPOCH   = 292
BSTAR          = -.59011E-2
MEAN_MOTION_DOT = -.14162E-1
MEAN_MOTION_DDOT = 0

CCSDS_OMM_VERS = 2.0
CREATION_DATE  = 
ORIGINATOR     = 

OBJECT_NAME    = STARLINK-36462
OBJECT_ID      = 2026-002S
CENTER_NAME    = EARTH
REF_FRAME      = TEME
TIME_SYSTEM    = UTC
MEAN_ELEMENT_THEORY = SGP/SGP4

EPOCH          = 2026-01-15T12:00:01.999296
MEAN_MOTION    = 15.87572105
ECCENTRICITY   = .0001936
INCLINATION    = 42.9980
RA_OF_ASC_NODE = 272.6546
ARG_OF_PERICENTER = 260.7431
MEAN_ANOMALY   = 122.5534

EPHEMERIS_TYPE = 0
CLASSIFICATION_TYPE = U
NORAD_CAT_ID   = 67321
ELEMENT_SET_NO = 999
REV_AT_EPOCH   = 286
BSTAR          = -.59599E-2
MEAN_MOTION_DOT = -.1429023E-1
MEAN_MOTION_DDOT = 0

CCSDS_OMM_VERS = 2.0
CREATION_DATE  = 
ORIGINATOR     = 

OBJECT_NAME    = STARLINK-36434
OBJECT_ID      = 2026-002T
CENTER_NAME    = EARTH
REF_FRAME      = TEME
TIME_SYSTEM    = UTC
MEAN_ELEMENT_THEORY = SGP/SGP4

EPOCH          = 2026-01-15T12:00:01.999296
MEAN_MOTION    = 15.87545499
ECCENTRICITY   = .0001908
INCLINATION    = 42.9980
RA_OF_ASC_NODE = 272.6592
ARG_OF_PERICENTER = 262.3412
MEAN_ANOMALY   = 119.0722

EPHEMERIS_TYPE = 0
CLASSIFICATION_TYPE = U
NORAD_CAT_ID   = 67322
ELEMENT_SET_NO = 999
REV_AT_EPOCH   = 286
BSTAR          = -.59374E-2
MEAN_MOTION_DOT = -.1422674E-1
MEAN_MOTION_DDOT = 0

CCSDS_OMM_VERS = 2.0
CREATION_DATE  = 
ORIGINATOR     = 

OBJECT_NAME    = STARLINK-36497
OBJECT_ID      = 2026-002U
CENTER_NAME    = EARTH
REF_FRAME      = TEME
TIME_SYSTEM    = UTC
MEAN_ELEMENT_THEORY = SGP/SGP4

EPOCH          = 2026-01-15T12:00:01.999296
MEAN_MOTION    = 15.87576255
ECCENTRICITY   = .0001898
INCLINATION    = 42.9982
RA_OF_ASC_NODE = 272.6481
ARG_OF_PERICENTER = 270.4347
MEAN_ANOMALY   = 115.3633

EPHEMERIS_TYPE = 0
CLASSIFICATION_TYPE = U
NORAD_CAT_ID   = 67323
ELEMENT_SET_NO = 999
REV_AT_EPOCH   = 292
BSTAR          = -.59795E-2
MEAN_MOTION_DOT = -.1433316E-1
MEAN_MOTION_DDOT = 0

CCSDS_OMM_VERS = 2.0
CREATION_DATE  = 
ORIGINATOR     = 

OBJECT_NAME    = STARLINK-36471
OBJECT_ID      = 2026-002V
CENTER_NAME    = EARTH
REF_FRAME      = TEME
TIME_SYSTEM    = UTC
MEAN_ELEMENT_THEORY = SGP/SGP4

EPOCH          = 2026-01-15T12:00:01.999296
MEAN_MOTION    = 15.87562596
ECCENTRICITY   = .0001885
INCLINATION    = 42.9987
RA_OF_ASC_NODE = 272.6335
ARG_OF_PERICENTER = 270.3405
MEAN_ANOMALY   = 121.4046

EPHEMERIS_TYPE = 0
CLASSIFICATION_TYPE = U
NORAD_CAT_ID   = 67324
ELEMENT_SET_NO = 999
REV_AT_EPOCH   = 286
BSTAR          = -.6077E-2
MEAN_MOTION_DOT = -.1452645E-1
MEAN_MOTION_DDOT = 0

CCSDS_OMM_VERS = 2.0
CREATION_DATE  = 
ORIGINATOR     = 

OBJECT_NAME    = STARLINK-36473
OBJECT_ID      = 2026-002W
CENTER_NAME    = EARTH
REF_FRAME      = TEME
TIME_SYSTEM    = UTC
MEAN_ELEMENT_THEORY = SGP/SGP4

EPOCH          = 2026-01-15T12:00:01.999296
MEAN_MOTION    = 15.87556590
ECCENTRICITY   = .0001948
INCLINATION    = 42.9981
RA_OF_ASC_NODE = 272.6404
ARG_OF_PERICENTER = 270.5757
MEAN_ANOMALY   = 118.4357

EPHEMERIS_TYPE = 0
CLASSIFICATION_TYPE = U
NORAD_CAT_ID   = 67325
ELEMENT_SET_NO = 999
REV_AT_EPOCH   = 302
BSTAR          = -.59916E-2
MEAN_MOTION_DOT = -.1434643E-1
MEAN_MOTION_DDOT = 0

CCSDS_OMM_VERS = 2.0
CREATION_DATE  = 
ORIGINATOR     = 

OBJECT_NAME    = STARLINK-36430
OBJECT_ID      = 2026-002X
CENTER_NAME    = EARTH
REF_FRAME      = TEME
TIME_SYSTEM    = UTC
MEAN_ELEMENT_THEORY = SGP/SGP4

EPOCH          = 2026-01-15T12:00:01.999296
MEAN_MOTION    = 15.87560236
ECCENTRICITY   = .0001933
INCLINATION    = 42.9983
RA_OF_ASC_NODE = 272.6193
ARG_OF_PERICENTER = 267.9799
MEAN_ANOMALY   = 129.3258

EPHEMERIS_TYPE = 0
CLASSIFICATION_TYPE = U
NORAD_CAT_ID   = 67326
ELEMENT_SET_NO = 999
REV_AT_EPOCH   = 302
BSTAR          = -.61469E-2
MEAN_MOTION_DOT = -.1466957E-1
MEAN_MOTION_DDOT = 0

CCSDS_OMM_VERS = 2.0
CREATION_DATE  = 
ORIGINATOR     = 

OBJECT_NAME    = STARLINK-36501
OBJECT_ID      = 2026-002Y
CENTER_NAME    = EARTH
REF_FRAME      = TEME
TIME_SYSTEM    = UTC
MEAN_ELEMENT_THEORY = SGP/SGP4

EPOCH          = 2026-01-15T12:00:01.999296
MEAN_MOTION    = 15.87565035
ECCENTRICITY   = .0001914
INCLINATION    = 42.9986
RA_OF_ASC_NODE = 272.6267
ARG_OF_PERICENTER = 269.0537
MEAN_ANOMALY   = 125.3734

EPHEMERIS_TYPE = 0
CLASSIFICATION_TYPE = U
NORAD_CAT_ID   = 67327
ELEMENT_SET_NO = 999
REV_AT_EPOCH   = 286
BSTAR          = -.61114E-2
MEAN_MOTION_DOT = -.1459928E-1
MEAN_MOTION_DDOT = 0

