STARLINK-36461          
1 67316U 26002M   26015.50002314 -.01392288  00000+0 -57965-2 0  9990
2 67316  42.9978 272.6917 0001882 267.4945 101.0342 15.87529979  3022
STARLINK-36450          
1 67317U 26002N   26015.50002314 -.01389454  00000+0 -57804-2 0  9994
2 67317  42.9978 272.6859 0001875 269.8855 100.9754 15.87538805  3029
STARLINK-36498          
1 67318U 26002P   26015.50002314 -.01404671  00000+0 -58500-2 0  9998
2 67318  42.9976 272.6732 0001662 270.4022 105.4117 15.87552531  2929
STARLINK-36470          
1 67319U 26002Q   26015.50002314 -.01397966  00000+0 -58190-2 0  9992
2 67319  42.9979 272.6795 0001879 268.7326 104.6072 15.87545844  2929
STARLINK-36500          
1 67320U 26002R   26015.50002314 -.01416200  00000+0 -59011-2 0  9990
2 67320  42.9979 272.6676 0001917 259.9060 118.3164 15.87562917  2923
STARLINK-36462          
1 67321U 26002S   26015.50002314 -.01429023  00000+0 -59599-2 0  9999
2 67321  42.9980 272.6546 0001936 260.7431 122.5534 15.87572105  2866
STARLINK-36434          
1 67322U 26002T   26015.50002314 -.01422674  00000+0 -59374-2 0  9996
2 67322  42.9980 272.6592 0001908 262.3412 119.0722 15.87545499  2860
STARLINK-36497          
1 67323U 26002U   26015.50002314 -.01433316  00000+0 -59795-2 0  9999
2 67323  42.9982 272.6481 0001898 270.4347 115.3633 15.87576255  2926
STARLINK-36471          
1 67324U 26002V   26015.50002314 -.01452645  00000+0 -60770-2 0  9991
2 67324  42.9987 272.6335 0001885 270.3405 121.4046 15.87562596  2862
STARLINK-36473          
1 67325U 26002W   26015.50002314 -.01434643  00000+0 -59916-2 0  9990
2 67325  42.9981 272.6404 0001948 270.5757 118.4357 15.87556590  3023
STARLINK-36430          
1 67326U 26002X   26015.50002314 -.01466957  00000+0 -61469-2 0  9990
2 67326  42.9983 272.6193 0001933 267.9799 129.3258 15.87560236  3024
STARLINK-36501          
1 67327U 26002Y   26015.50002314 -.01459928  00000+0 -61114-2 0  9998
2 67327  42.9986 272.6267 0001914 269.0537 125.3734 15.87565035  2860
